{
 "generated_at": "2026-07-08T07:29:27Z",
 "sources": [
  {
   "name": "CelesTrak",
   "url": "https://celestrak.org/NORAD/elements/",
   "license": "frei verfügbar; Attribution. Ursprünglich USSPACECOM/Space-Track."
  },
  {
   "name": "GCAT (J. McDowell, planet4589.org)",
   "url": "https://planet4589.org/space/gcat/",
   "license": "CC-BY 4.0"
  }
 ],
 "satellites": [
  {
   "norad": 38709,
   "name": "EXACTVIEW-1 (ADS-1B)",
   "intl": "2012-039C",
   "group": "resource",
   "gcat": {
    "class": "B",
    "category": "COM",
    "owner": "EXEA",
    "state": "CA"
   },
   "omm": {
    "OBJECT_NAME": "EXACTVIEW-1 (ADS-1B)",
    "OBJECT_ID": "2012-039C",
    "EPOCH": "2026-07-07T06:03:13.533408",
    "MEAN_MOTION": 14.24990589,
    "ECCENTRICITY": 0.00119067,
    "INCLINATION": 98.9797,
    "RA_OF_ASC_NODE": 306.0977,
    "ARG_OF_PERICENTER": 112.2478,
    "MEAN_ANOMALY": 247.9964,
    "EPHEMERIS_TYPE": 0,
    "CLASSIFICATION_TYPE": "U",
    "NORAD_CAT_ID": 38709,
    "ELEMENT_SET_NO": 999,
    "REV_AT_EPOCH": 72556,
    "BSTAR": 0.000062814355,
    "MEAN_MOTION_DOT": 0.00000101,
    "MEAN_MOTION_DDOT": 0
   }
  },
  {
   "norad": 40367,
   "name": "FENGYUN 2G",
   "intl": "2014-090A",
   "group": "weather",
   "gcat": {
    "class": "C",
    "category": "MET",
    "owner": "NSMC",
    "state": "CN"
   },
   "omm": {
    "OBJECT_NAME": "FENGYUN 2G",
    "OBJECT_ID": "2014-090A",
    "EPOCH": "2026-07-07T19:12:21.597408",
    "MEAN_MOTION": 1.00263947,
    "ECCENTRICITY": 0.0003874,
    "INCLINATION": 5.6876,
    "RA_OF_ASC_NODE": 72.5714,
    "ARG_OF_PERICENTER": 150.3057,
    "MEAN_ANOMALY": 90.4158,
    "EPHEMERIS_TYPE": 0,
    "CLASSIFICATION_TYPE": "U",
    "NORAD_CAT_ID": 40367,
    "ELEMENT_SET_NO": 999,
    "REV_AT_EPOCH": 4220,
    "BSTAR": 0,
    "MEAN_MOTION_DOT": -0.00000288,
    "MEAN_MOTION_DDOT": 0
   }
  },
  {
   "norad": 43491,
   "name": "FENGYUN 2H",
   "intl": "2018-050A",
   "group": "weather",
   "gcat": {
    "class": "C",
    "category": "MET",
    "owner": "NSMC",
    "state": "CN"
   },
   "omm": {
    "OBJECT_NAME": "FENGYUN 2H",
    "OBJECT_ID": "2018-050A",
    "EPOCH": "2026-07-07T20:57:58.862016",
    "MEAN_MOTION": 1.00268461,
    "ECCENTRICITY": 0.0002057,
    "INCLINATION": 3.0811,
    "RA_OF_ASC_NODE": 78.8387,
    "ARG_OF_PERICENTER": 124.8438,
    "MEAN_ANOMALY": 115.8872,
    "EPHEMERIS_TYPE": 0,
    "CLASSIFICATION_TYPE": "U",
    "NORAD_CAT_ID": 43491,
    "ELEMENT_SET_NO": 999,
    "REV_AT_EPOCH": 2964,
    "BSTAR": 0,
    "MEAN_MOTION_DOT": -0.00000115,
    "MEAN_MOTION_DDOT": 0
   }
  },
  {
   "norad": 32958,
   "name": "FENGYUN 3A",
   "intl": "2008-026A",
   "group": "weather",
   "gcat": {
    "class": null,
    "category": null,
    "owner": null,
    "state": null
   },
   "omm": {
    "OBJECT_NAME": "FENGYUN 3A",
    "OBJECT_ID": "2008-026A",
    "EPOCH": "2026-07-07T18:28:01.515936",
    "MEAN_MOTION": 14.19575488,
    "ECCENTRICITY": 0.0009852,
    "INCLINATION": 98.6886,
    "RA_OF_ASC_NODE": 129.218,
    "ARG_OF_PERICENTER": 71.0825,
    "MEAN_ANOMALY": 289.1419,
    "EPHEMERIS_TYPE": 0,
    "CLASSIFICATION_TYPE": "U",
    "NORAD_CAT_ID": 32958,
    "ELEMENT_SET_NO": 999,
    "REV_AT_EPOCH": 93832,
    "BSTAR": 0.000044996,
    "MEAN_MOTION_DOT": 5.2e-7,
    "MEAN_MOTION_DDOT": 0
   }
  },
  {
   "norad": 37214,
   "name": "FENGYUN 3B",
   "intl": "2010-059A",
   "group": "weather",
   "gcat": {
    "class": null,
    "category": null,
    "owner": null,
    "state": null
   },
   "omm": {
    "OBJECT_NAME": "FENGYUN 3B",
    "OBJECT_ID": "2010-059A",
    "EPOCH": "2026-07-07T21:26:49.054848",
    "MEAN_MOTION": 14.14845006,
    "ECCENTRICITY": 0.0022949,
    "INCLINATION": 98.9607,
    "RA_OF_ASC_NODE": 234.9948,
    "ARG_OF_PERICENTER": 126.2732,
    "MEAN_ANOMALY": 349.5821,
    "EPHEMERIS_TYPE": 0,
    "CLASSIFICATION_TYPE": "U",
    "NORAD_CAT_ID": 37214,
    "ELEMENT_SET_NO": 999,
    "REV_AT_EPOCH": 81035,
    "BSTAR": -0.00015514,
    "MEAN_MOTION_DOT": -0.00000345,
    "MEAN_MOTION_DDOT": 0
   }
  },
  {
   "norad": 39260,
   "name": "FENGYUN 3C",
   "intl": "2013-052A",
   "group": "weather",
   "gcat": {
    "class": "C",
    "category": "MET",
    "owner": "NSMC",
    "state": "CN"
   },
   "omm": {
    "OBJECT_NAME": "FENGYUN 3C",
    "OBJECT_ID": "2013-052A",
    "EPOCH": "2026-07-07T21:25:08.493888",
    "MEAN_MOTION": 14.15759668,
    "ECCENTRICITY": 0.0014018,
    "INCLINATION": 98.4992,
    "RA_OF_ASC_NODE": 161.8178,
    "ARG_OF_PERICENTER": 328.2003,
    "MEAN_ANOMALY": 31.8324,
    "EPHEMERIS_TYPE": 0,
    "CLASSIFICATION_TYPE": "U",
    "NORAD_CAT_ID": 39260,
    "ELEMENT_SET_NO": 999,
    "REV_AT_EPOCH": 66149,
    "BSTAR": 0.000057871,
    "MEAN_MOTION_DOT": 7.2e-7,
    "MEAN_MOTION_DDOT": 0
   }
  },
  {
   "norad": 43010,
   "name": "FENGYUN 3D",
   "intl": "2017-072A",
   "group": "weather",
   "gcat": {
    "class": "C",
    "category": "MET",
    "owner": "NSMC",
    "state": "CN"
   },
   "omm": {
    "OBJECT_NAME": "FENGYUN 3D",
    "OBJECT_ID": "2017-072A",
    "EPOCH": "2026-07-07T20:48:21.691008",
    "MEAN_MOTION": 14.19742396,
    "ECCENTRICITY": 0.0001914,
    "INCLINATION": 99.0141,
    "RA_OF_ASC_NODE": 163.6638,
    "ARG_OF_PERICENTER": 28.8509,
    "MEAN_ANOMALY": 331.2772,
    "EPHEMERIS_TYPE": 0,
    "CLASSIFICATION_TYPE": "U",
    "NORAD_CAT_ID": 43010,
    "ELEMENT_SET_NO": 999,
    "REV_AT_EPOCH": 44792,
    "BSTAR": -0.00011139,
    "MEAN_MOTION_DOT": -0.00000282,
    "MEAN_MOTION_DDOT": 0
   }
  },
  {
   "norad": 49008,
   "name": "FENGYUN 3E",
   "intl": "2021-062A",
   "group": "weather",
   "gcat": {
    "class": "C",
    "category": "MET",
    "owner": "NSMC",
    "state": "CN"
   },
   "omm": {
    "OBJECT_NAME": "FENGYUN 3E",
    "OBJECT_ID": "2021-062A",
    "EPOCH": "2026-07-07T20:21:49.972320",
    "MEAN_MOTION": 14.19906013,
    "ECCENTRICITY": 0.0002512,
    "INCLINATION": 98.7501,
    "RA_OF_ASC_NODE": 192.0261,
    "ARG_OF_PERICENTER": 52.0138,
    "MEAN_ANOMALY": 308.1265,
    "EPHEMERIS_TYPE": 0,
    "CLASSIFICATION_TYPE": "U",
    "NORAD_CAT_ID": 49008,
    "ELEMENT_SET_NO": 999,
    "REV_AT_EPOCH": 25951,
    "BSTAR": 0.000051398,
    "MEAN_MOTION_DOT": 6.5e-7,
    "MEAN_MOTION_DDOT": 0
   }
  },
  {
   "norad": 57490,
   "name": "FENGYUN 3F",
   "intl": "2023-111A",
   "group": "weather",
   "gcat": {
    "class": "C",
    "category": "MET",
    "owner": "NSMC",
    "state": "CN"
   },
   "omm": {
    "OBJECT_NAME": "FENGYUN 3F",
    "OBJECT_ID": "2023-111A",
    "EPOCH": "2026-07-07T19:57:57.767904",
    "MEAN_MOTION": 14.19942632,
    "ECCENTRICITY": 0.0001404,
    "INCLINATION": 98.6828,
    "RA_OF_ASC_NODE": 258.4552,
    "ARG_OF_PERICENTER": 79.9133,
    "MEAN_ANOMALY": 280.2201,
    "EPHEMERIS_TYPE": 0,
    "CLASSIFICATION_TYPE": "U",
    "NORAD_CAT_ID": 57490,
    "ELEMENT_SET_NO": 999,
    "REV_AT_EPOCH": 15179,
    "BSTAR": 0.00002654,
    "MEAN_MOTION_DOT": 1.3e-7,
    "MEAN_MOTION_DDOT": 0
   }
  },
  {
   "norad": 56232,
   "name": "FENGYUN 3G",
   "intl": "2023-055A",
   "group": "weather",
   "gcat": {
    "class": "C",
    "category": "MET",
    "owner": "NSMC",
    "state": "CN"
   },
   "omm": {
    "OBJECT_NAME": "FENGYUN 3G",
    "OBJECT_ID": "2023-055A",
    "EPOCH": "2026-07-07T16:40:53.560704",
    "MEAN_MOTION": 15.53556033,
    "ECCENTRICITY": 0.0007222,
    "INCLINATION": 49.9916,
    "RA_OF_ASC_NODE": 240.2815,
    "ARG_OF_PERICENTER": 22.5556,
    "MEAN_ANOMALY": 337.5727,
    "EPHEMERIS_TYPE": 0,
    "CLASSIFICATION_TYPE": "U",
    "NORAD_CAT_ID": 56232,
    "ELEMENT_SET_NO": 999,
    "REV_AT_EPOCH": 18319,
    "BSTAR": 0.00024641,
    "MEAN_MOTION_DOT": 0.0001557,
    "MEAN_MOTION_DDOT": 0
   }
  },
  {
   "norad": 65815,
   "name": "FENGYUN 3H",
   "intl": "2025-219A",
   "group": "weather",
   "gcat": {
    "class": "C",
    "category": "MET",
    "owner": "NSMC",
    "state": "CN"
   },
   "omm": {
    "OBJECT_NAME": "FENGYUN 3H",
    "OBJECT_ID": "2025-219A",
    "EPOCH": "2026-07-07T18:11:39.852096",
    "MEAN_MOTION": 14.19924034,
    "ECCENTRICITY": 0.00013,
    "INCLINATION": 98.6771,
    "RA_OF_ASC_NODE": 129.1275,
    "ARG_OF_PERICENTER": 63.781,
    "MEAN_ANOMALY": 296.35,
    "EPHEMERIS_TYPE": 0,
    "CLASSIFICATION_TYPE": "U",
    "NORAD_CAT_ID": 65815,
    "ELEMENT_SET_NO": 999,
    "REV_AT_EPOCH": 4030,
    "BSTAR": 0.000036221,
    "MEAN_MOTION_DOT": 3.4e-7,
    "MEAN_MOTION_DDOT": 0
   }
  },
  {
   "norad": 41882,
   "name": "FENGYUN 4A",
   "intl": "2016-077A",
   "group": "weather",
   "gcat": {
    "class": "C",
    "category": "MET",
    "owner": "NSMC",
    "state": "CN"
   },
   "omm": {
    "OBJECT_NAME": "FENGYUN 4A",
    "OBJECT_ID": "2016-077A",
    "EPOCH": "2026-07-07T21:10:42.642336",
    "MEAN_MOTION": 1.00272744,
    "ECCENTRICITY": 0.0008187,
    "INCLINATION": 2.3716,
    "RA_OF_ASC_NODE": 80.0617,
    "ARG_OF_PERICENTER": 157.8956,
    "MEAN_ANOMALY": 129.3467,
    "EPHEMERIS_TYPE": 0,
    "CLASSIFICATION_TYPE": "U",
    "NORAD_CAT_ID": 41882,
    "ELEMENT_SET_NO": 999,
    "REV_AT_EPOCH": 3513,
    "BSTAR": 0,
    "MEAN_MOTION_DOT": -0.00000343,
    "MEAN_MOTION_DDOT": 0
   }
  },
  {
   "norad": 42920,
   "name": "FORMOSAT-5",
   "intl": "2017-049A",
   "group": "resource",
   "gcat": {
    "class": "C",
    "category": "IMG/SCI",
    "owner": "NSPO",
    "state": "TW"
   },
   "omm": {
    "OBJECT_NAME": "FORMOSAT-5",
    "OBJECT_ID": "2017-049A",
    "EPOCH": "2026-07-07T17:48:14.683968",
    "MEAN_MOTION": 14.50906398,
    "ECCENTRICITY": 0.0011835,
    "INCLINATION": 98.2248,
    "RA_OF_ASC_NODE": 263.5946,
    "ARG_OF_PERICENTER": 26.2294,
    "MEAN_ANOMALY": 333.9498,
    "EPHEMERIS_TYPE": 0,
    "CLASSIFICATION_TYPE": "U",
    "NORAD_CAT_ID": 42920,
    "ELEMENT_SET_NO": 999,
    "REV_AT_EPOCH": 46965,
    "BSTAR": 0.000036545,
    "MEAN_MOTION_DOT": 0.00000101,
    "MEAN_MOTION_DDOT": 0
   }
  }
 ]
}
